{"type":"FeatureCollection","features":[{"type":"Feature","geometry":{"type":"Polygon","coordinates":[[[-122.68718724057587,38.44108091194748],[-122.68706602742895,38.44012447094871],[-122.6872881720803,38.43860462060135],[-122.68747079100127,38.43859334496733],[-122.68812246099459,38.4388065889153],[-122.68889409597662,38.43944327623685],[-122.68982253139936,38.43961223149266],[-122.69078213548929,38.44040712368912],[-122.69193879950792,38.44056293500248],[-122.69245129965687,38.43991585707866],[-122.69314907592467,38.4393205281578],[-122.69357128503802,38.43899071400246],[-122.69386472281498,38.43871466361972],[-122.6944744791171,38.43866350999963],[-122.69558109057506,38.439005190166],[-122.69570171415128,38.43911373869954],[-122.6959211760386,38.4391631490841],[-122.69627583873844,38.43912012411736],[-122.69696390432809,38.4389452743888],[-122.69953399728745,38.43890280058672],[-122.7011578363131,38.43873476119753],[-122.70281023031008,38.43883881249716],[-122.70454654747866,38.43838205785133],[-122.70496305174905,38.43793146918057],[-122.70582196566173,38.4377610625652],[-122.70650469930324,38.43781160466113],[-122.70688951655757,38.43740001953522],[-122.70742481632627,38.43769289103337],[-122.70790352777117,38.43807407808839],[-122.7084575837578,38.43881154703817],[-122.70879965799396,38.43864597799689],[-122.70921443309088,38.43848951651617],[-122.70887196762487,38.43800508820617],[-122.70819759112786,38.43683419514884],[-122.70726901246236,38.43517256843519],[-122.7064179244917,38.43368781454377],[-122.70559432859775,38.43204496902506],[-122.71110114001203,38.43051075229445],[-122.71111684147925,38.43015089943333],[-122.71132278372536,38.42975081195761],[-122.71092508076222,38.42952091796517],[-122.71063165389936,38.42820023866952],[-122.71041558957762,38.42764837789963],[-122.70818474373768,38.42384980909615],[-122.70791095263378,38.42338657575187],[-122.71046714222962,38.42241223752532],[-122.71046199043442,38.42216573251895],[-122.71039501900422,38.42200049886221],[-122.71104053099408,38.42176776244505],[-122.7110538245767,38.42210827015245],[-122.71353840912766,38.42133693545185],[-122.71355415073047,38.42114934876648],[-122.7130132754557,38.42109115528816],[-122.71062656212322,38.42188125092091],[-122.70760357638014,38.42291361441328],[-122.70492094803602,38.42387750312888],[-122.70203634548363,38.42493375573973],[-122.70083184179855,38.425375136439854],[-122.70009123304575,38.425644177005296],[-122.69956505197034,38.42579265689826],[-122.69959679735626,38.42368793980168],[-122.69920455030623,38.42368409086791],[-122.6992093502607,38.42360905557183],[-122.6988088700377,38.42361068676233],[-122.69880454557155,38.42354115381293],[-122.69842034782988,38.423543480157235],[-122.69841763408299,38.42358941058936],[-122.69798036489794,38.42358807361893],[-122.69761316094097,38.423550312256666],[-122.69760840092837,38.42378371239093],[-122.69663047963591,38.42378385786975],[-122.69526022992888,38.42377845562817],[-122.69511110759576,38.42355479449846],[-122.69481350419001,38.42370580989123],[-122.69415603606035,38.42375184044408],[-122.69383351360673,38.42371130323093],[-122.69373025511223,38.42366096853496],[-122.6930464815225,38.423651570123],[-122.693036986008,38.42376723952094],[-122.69181067222505,38.42378220218558],[-122.6898381671352,38.42372953164156],[-122.68570750692002,38.42372826070256],[-122.68576325127997,38.43244598477537],[-122.6834241661005,38.43214033701736],[-122.68347054407396,38.43324509115129],[-122.68252272653199,38.43326068399077],[-122.68247171044968,38.43268139441617],[-122.68158941876187,38.43273680995759],[-122.68163956778942,38.43400591770939],[-122.6817133200252,38.43527206410502],[-122.68175789444246,38.435907746983],[-122.68184804167757,38.43645456571352],[-122.68242124784425,38.43656581092898],[-122.68252124724691,38.436683675987695],[-122.68258136773156,38.43686139089087],[-122.68267480387962,38.43746321315378],[-122.68173732529097,38.437684449523864],[-122.68127556648693,38.437867317046944],[-122.68107365705004,38.43955136144641],[-122.68078060931798,38.44196134005126],[-122.68130865459696,38.44183002947154],[-122.68191490712815,38.44184379583323],[-122.68251270953864,38.44176490358928],[-122.68368785871736,38.44117420580836],[-122.6848144426488,38.44118494373481],[-122.68490570294045,38.44125345664765],[-122.6852894628211,38.44130563406614],[-122.68619542790145,38.44139801572751],[-122.68691549032484,38.44127860494099],[-122.68718724057587,38.44108091194748]]]},"properties":{"Name":"Brook Hill Elementary School","stroke":"#555555","stroke-width":2,"stroke-opacity":1,"fill":"#7f0b0b","fill-opacity":0.5}},{"type":"Feature","geometry":{"type":"Polygon","coordinates":[[[-122.71355415073047,38.42114934876648],[-122.71353840912766,38.42133693545185],[-122.7110538245767,38.42210827015245],[-122.71104053099408,38.42176776244505],[-122.7103961755305,38.42199966067094],[-122.71046199043442,38.42216573251895],[-122.71046714222962,38.42241223752532],[-122.70791095263378,38.42338657575187],[-122.71041558957762,38.42764837789963],[-122.71063165389936,38.42820023866952],[-122.71090349997397,38.42950844307218],[-122.71132278372536,38.42975081195761],[-122.71111684147925,38.43015089943333],[-122.71110114001203,38.43051075229445],[-122.70559432859775,38.43204496902506],[-122.7064179244917,38.43368781454377],[-122.70726901246236,38.43517256843519],[-122.70819759112786,38.43683419514884],[-122.70887196762487,38.43800508820617],[-122.70921443309088,38.43848951651617],[-122.70879965799396,38.43864597799689],[-122.7084575837578,38.43881154703817],[-122.70790352777117,38.43807407808839],[-122.70742481632627,38.43769289103337],[-122.70688951655757,38.43740001953522],[-122.70650469930324,38.43781160466113],[-122.70582196566173,38.4377610625652],[-122.70496305174905,38.43793146918057],[-122.70456716392621,38.43839282742107],[-122.70281718187412,38.4388614786111],[-122.70115571693894,38.43875412036985],[-122.69951769556025,38.4389194876473],[-122.69696390432809,38.4389452743888],[-122.69808474637104,38.44168799213424],[-122.69819627283142,38.44166435383716],[-122.69906033703595,38.44349645688224],[-122.6995516527677,38.44426735529048],[-122.6996080891695,38.44443379785781],[-122.7005527620974,38.444707631846],[-122.70171957228882,38.44436554318041],[-122.70250190366774,38.44400681754469],[-122.70278986154295,38.44274444070491],[-122.70315193613688,38.44165877374661],[-122.70363589856159,38.44112653096637],[-122.70413540568642,38.44097947002895],[-122.7066060266722,38.44107192796654],[-122.70738349386886,38.44060589134367],[-122.7082609740319,38.43999871042569],[-122.70900757896015,38.43961015789498],[-122.71012121982712,38.44113068925204],[-122.7213783748448,38.43604213368252],[-122.7213696781441,38.43480844442041],[-122.72138270167574,38.43346858633727],[-122.72122618393398,38.42864529791723],[-122.72118654372926,38.42655873709853],[-122.72118523681634,38.42448392629916],[-122.72114795826533,38.42172506296538],[-122.72116105192637,38.41862732332362],[-122.7207770224394,38.41863930863278],[-122.7203947216268,38.41879803761802],[-122.71971848621259,38.41885357292435],[-122.7193242951762,38.41893236673306],[-122.7183906795108,38.41898332552921],[-122.71819972665983,38.41902219053996],[-122.71806376171298,38.41920684728258],[-122.71805238883492,38.41942664826681],[-122.71744044619516,38.41944435407079],[-122.71582278927175,38.4200241282476],[-122.71486251716993,38.42034235125439],[-122.71487739839097,38.42044125194272],[-122.71426098161749,38.4207297765135],[-122.714147163575,38.420835078855376],[-122.71372859809927,38.420924919235084],[-122.71350575324438,38.42091671215823],[-122.71355415073047,38.42114934876648]]]},"properties":{"Name":"Luther Burbank Elementary School","stroke":"#555555","stroke-width":2,"stroke-opacity":1,"fill":"#085e0e","fill-opacity":0.5},"id":3},{"type":"Feature","geometry":{"type":"Polygon","coordinates":[[[-122.74105545307977,38.45994983053405],[-122.7406374946515,38.45997254563472],[-122.7469777369564,38.46722337320783],[-122.74758279207217,38.467198307454055],[-122.74769789588456,38.46734368314876],[-122.74780831438547,38.46728484972111],[-122.74786672726559,38.46735304976881],[-122.74801478843403,38.4672938004981],[-122.74819846330188,38.46753725308287],[-122.74872260411762,38.4672622351939],[-122.74905620894417,38.46714618245923],[-122.74944731892685,38.46710261734606],[-122.760406924676,38.46714686870945],[-122.76040510882032,38.46699719820572],[-122.76039655657064,38.465596029414],[-122.76040043990957,38.46462268015989],[-122.76040692407582,38.46372982043114],[-122.7604132781455,38.46280738262084],[-122.760387503173,38.46234535043483],[-122.7603807270763,38.46121107123421],[-122.76038337785658,38.46020741331302],[-122.76040655710293,38.45927793423306],[-122.76035631827928,38.45797851975027],[-122.76036947775684,38.45665414444446],[-122.76040248526206,38.45555144435315],[-122.75957195182738,38.45518859626938],[-122.75979963679406,38.45481769156814],[-122.75995054296934,38.45425557116229],[-122.75998157750784,38.45391801510415],[-122.7599054389438,38.45307338618892],[-122.76004058253662,38.45279777019511],[-122.76024951798625,38.4525976034852],[-122.75133066577838,38.4525300855898],[-122.74623988938401,38.45259480315459],[-122.7462523451796,38.45500502258654],[-122.74599707557158,38.45597823318063],[-122.74530287773815,38.45975120767608],[-122.74208364542577,38.45976000469546],[-122.74135374405888,38.45990965436259],[-122.74105545307977,38.45994983053405]]]},"properties":{"Name":"James Monroe Elementary School","stroke":"#555555","stroke-width":2,"stroke-opacity":1,"fill":"#000e7a","fill-opacity":0.5}},{"type":"Feature","geometry":{"type":"Polygon","coordinates":[[[-122.68889409597662,38.43944327623685],[-122.6881311471254,38.43881339254108],[-122.6874621048701,38.43858994319106],[-122.68728817208007,38.43861822789353],[-122.68706602742895,38.44012447094871],[-122.68718724057587,38.44108091194748],[-122.68842100398616,38.44919160102558],[-122.6887979449909,38.44905729964737],[-122.6893579750322,38.44906183971954],[-122.69000551896173,38.44915313380551],[-122.69105478655545,38.4494333171451],[-122.69208940677348,38.44979138504469],[-122.69280742386856,38.44980024936358],[-122.6892382869422,38.45367406259746],[-122.68938908343782,38.45389033201539],[-122.68924173830293,38.45411854860732],[-122.68896641396354,38.45434781763818],[-122.68841434057182,38.45452292691958],[-122.6897727490022,38.45564595220702],[-122.69116486419958,38.45657228536268],[-122.6911765743482,38.45701235136297],[-122.69158262118452,38.45747317135299],[-122.69128940811154,38.45806654035942],[-122.69228578045283,38.4583906972471],[-122.69316894005352,38.45857485346087],[-122.69366417847715,38.45884187851702],[-122.69401087823891,38.458989820179355],[-122.69512212672356,38.459697934534134],[-122.69549775517106,38.45937861726693],[-122.6984195405988,38.46129541849743],[-122.70123097303632,38.458537283044],[-122.70165836810735,38.45876746343371],[-122.70242673250657,38.45883972755729],[-122.7024620564255,38.45871705662376],[-122.70284208320393,38.45879096130025],[-122.70297575209791,38.4584111588878],[-122.70373463967488,38.45878173352775],[-122.70395082638179,38.45862979042328],[-122.7044444315789,38.45937355986097],[-122.7034559862626,38.45984158397111],[-122.70476621008282,38.46117833850555],[-122.70611304139275,38.46405599865956],[-122.70670814969954,38.46450167787229],[-122.70732246026571,38.46440496090959],[-122.70899043835786,38.46376169725751],[-122.7091826744591,38.46453527448375],[-122.70971900135082,38.46478039778357],[-122.71043835344155,38.46529559014376],[-122.711590525448,38.46611011348453],[-122.7125575201086,38.46691004528386],[-122.71347564742634,38.4671692846785],[-122.7145214751363,38.46575533920027],[-122.71445875492645,38.46511267000492],[-122.71442969067722,38.4647017561016],[-122.71434736205266,38.46447106566883],[-122.71353571093643,38.46367156925551],[-122.711592588182,38.46188090693263],[-122.70953417988494,38.45998395605971],[-122.70808463450524,38.4579385455157],[-122.70798259007282,38.45771719683024],[-122.70793824456634,38.4573958384182],[-122.70797488919928,38.45628516214996],[-122.70812390896027,38.45347916850204],[-122.71742850774902,38.45371807647427],[-122.71757555721997,38.45022553245521],[-122.7113408024268,38.45000879913129],[-122.7115022228831,38.44594010419118],[-122.7034462123197,38.44582989416154],[-122.70546253421347,38.44447655112503],[-122.70590814761817,38.44419276660824],[-122.70673416322099,38.44378046159791],[-122.71073525160323,38.44196905585838],[-122.70900757896015,38.43961015789498],[-122.7082609740319,38.43999871042569],[-122.70736982733888,38.44061090888373],[-122.7066060266722,38.44107192796654],[-122.70562243858186,38.44105059921835],[-122.70413540568642,38.44097947002895],[-122.70363589856159,38.44112653096637],[-122.70315193613688,38.44165877374661],[-122.70295824032505,38.44223468618283],[-122.70278986154295,38.44274444070491],[-122.70250190366774,38.44400681754469],[-122.70171957228882,38.44436554318041],[-122.7005527620974,38.444707631846],[-122.6996080891695,38.44443379785781],[-122.6995516527677,38.44426735529048],[-122.69906033703595,38.44349645688224],[-122.69819627283142,38.44166435383716],[-122.69808474637104,38.44168799213424],[-122.69696390432809,38.4389452743888],[-122.69627583873844,38.43912012411736],[-122.6959211760386,38.4391631490841],[-122.69570171415128,38.43911373869954],[-122.69558109057506,38.439005190166],[-122.6944744791171,38.43866350999963],[-122.69386472281498,38.43871466361972],[-122.69357128503802,38.43899071400246],[-122.69314907592467,38.4393205281578],[-122.69245129965687,38.43991585707866],[-122.69193879950792,38.44056293500248],[-122.6911948986642,38.44046392177272],[-122.69078213548929,38.44040712368912],[-122.68982253139936,38.43961223149266],[-122.68889409597662,38.43944327623685]]]},"properties":{"Name":"Proctor Terrace Elementary School","stroke":"#555555","stroke-width":2,"stroke-opacity":1,"fill":"#ff8800","fill-opacity":0.5}},{"type":"Feature","geometry":{"type":"Polygon","coordinates":[[[-122.75133066577838,38.4525300855898],[-122.76024951798625,38.4525976034852],[-122.76956143386555,38.45257799368511],[-122.76961534341014,38.44752602602267],[-122.7695430043499,38.44183271484883],[-122.76931053136387,38.44176808600902],[-122.76871047088467,38.44174989419102],[-122.7645995144135,38.44170996810957],[-122.7622084770747,38.44164791159258],[-122.75799771316524,38.44095830346942],[-122.7570934864808,38.44054602264822],[-122.75494506953756,38.43735980514538],[-122.75397850172943,38.43661306855839],[-122.75338593050407,38.43635736783493],[-122.75270910434072,38.4362600594238],[-122.75184306080781,38.43624786236852],[-122.75117922912511,38.43643365596506],[-122.75053055987983,38.43689105116886],[-122.7497570988702,38.43738173892101],[-122.74929879183946,38.43755324329782],[-122.74825912574104,38.43761255483563],[-122.74685221147563,38.43766023325491],[-122.74503244801748,38.43780690515095],[-122.74296076225527,38.43842327459925],[-122.7431301661694,38.43921467287363],[-122.7438189122298,38.44001572824714],[-122.74727691575075,38.44169455449846],[-122.7490428605176,38.44253004717266],[-122.75011707733567,38.44306022435974],[-122.75069083812377,38.44343803541954],[-122.75095516338504,38.44374572229777],[-122.75113902172087,38.44410193103605],[-122.75125001849337,38.44440491257671],[-122.75124973146445,38.44482808681285],[-122.75126235349757,38.4452683547497],[-122.7512947534726,38.44806460927848],[-122.75133066577838,38.4525300855898]]]},"properties":{"Name":"Albert F. Biella Elementary School","stroke":"#555555","stroke-width":2,"stroke-opacity":1,"fill":"#0033ff","fill-opacity":0.5}},{"type":"Feature","geometry":{"type":"Polygon","coordinates":[[[-122.74530287773815,38.45975120767608],[-122.74619806753032,38.45493796624922],[-122.7462244967734,38.45398965690071],[-122.74623988938401,38.45259480315459],[-122.75133066577838,38.4525300855898],[-122.75125645641415,38.44526560132485],[-122.74347132712138,38.44521903429738],[-122.74168694828406,38.44535594780008],[-122.74088344668566,38.44539224832441],[-122.739424277097,38.44542106773344],[-122.73676644370428,38.44555209108516],[-122.72397416851167,38.44583176130466],[-122.72491459555955,38.44716575901186],[-122.7256430690857,38.44851539948383],[-122.72610036960936,38.45017180429099],[-122.72617427933547,38.45127623983541],[-122.72609884023754,38.45426656697625],[-122.72605711932837,38.45637089067759],[-122.72614787011128,38.45823980578276],[-122.72622738149794,38.45996203516099],[-122.73037595412958,38.45994988666742],[-122.73562920803673,38.45999000258103],[-122.73545813279623,38.45696642473424],[-122.73710965602828,38.45593322139064],[-122.74063728564136,38.45997230632787],[-122.74105545307977,38.45994983053405],[-122.74135374405888,38.45990965436259],[-122.74208364542577,38.45976000469546],[-122.74344671689497,38.45975050214303],[-122.74530287773815,38.45975120767608]]]},"properties":{"Name":"Helen Lehman Elementary School","stroke":"#555555","stroke-width":2,"stroke-opacity":1,"fill":"#0ea4a2","fill-opacity":0.5}},{"type":"Feature","geometry":{"type":"Polygon","coordinates":[[[-122.71347564742634,38.4671692846785],[-122.71796243605458,38.46760530929345],[-122.71926105173539,38.46862810532264],[-122.72043190016846,38.46980217841825],[-122.72115685634589,38.47119618575064],[-122.72156644504555,38.47151864792605],[-122.72273809533127,38.47228083906809],[-122.72331083718876,38.4726397556637],[-122.72459818522634,38.47343806832356],[-122.72476627178116,38.47378775548084],[-122.72740163335644,38.47516405232021],[-122.72860879695394,38.47477307260529],[-122.73056597186564,38.47547823926493],[-122.73088108189253,38.47575869803936],[-122.73153510410341,38.47566934743491],[-122.73089835187425,38.4741221024614],[-122.73007514420898,38.47217861139034],[-122.72856145631523,38.46864408966934],[-122.7310762976556,38.4686786214445],[-122.73102707695216,38.46623000082384],[-122.73264846444364,38.46624028855625],[-122.73264637086776,38.46661346879955],[-122.74166706785061,38.46663230510673],[-122.74168472184236,38.46738484940427],[-122.74297546248876,38.46737517075458],[-122.74431646154314,38.46736317737246],[-122.744435798963,38.46765966774511],[-122.74482645293706,38.467336554554144],[-122.74697282116293,38.46722758021252],[-122.73710965602828,38.45593322139064],[-122.73545813279623,38.45696642473424],[-122.73562920803673,38.45999000258103],[-122.72622350584933,38.45996900698202],[-122.7260316171974,38.45636672506362],[-122.72615276228,38.45125861703817],[-122.72608730272806,38.45020703837924],[-122.72563115194659,38.44851702808582],[-122.7249128734287,38.44718555028782],[-122.72412356014183,38.4460766068478],[-122.72396399113661,38.4458286468452],[-122.7259293820569,38.44580071981433],[-122.72806391822574,38.44571496375896],[-122.72427606295032,38.44138701098332],[-122.72232865687884,38.43901795426298],[-122.72174346959223,38.43775892677943],[-122.7213783748448,38.43604213368252],[-122.71012121982712,38.44113068925204],[-122.71073525160323,38.44196905585838],[-122.70673416322099,38.44378046159791],[-122.70590814761817,38.44419276660824],[-122.70546253421347,38.44447655112503],[-122.7034462123197,38.44582989416154],[-122.7115022228831,38.44594010419118],[-122.7113408024268,38.45000879913129],[-122.71757555721997,38.45022553245521],[-122.71742850774902,38.45371807647427],[-122.70812390896027,38.45347916850204],[-122.70802364552775,38.45549624824889],[-122.70793824456634,38.4573958384182],[-122.70798259007282,38.45771719683024],[-122.70808463450524,38.4579385455157],[-122.70953417988494,38.45998395605971],[-122.71353571093643,38.46367156925551],[-122.71434736205266,38.46447106566883],[-122.71442969067722,38.4647017561016],[-122.71445875492645,38.46511267000492],[-122.7145214751363,38.46575533920027],[-122.71347564742634,38.4671692846785]]]},"properties":{"Name":"Steele Lane Elementary School","stroke":"#555555","stroke-width":2,"stroke-opacity":1,"fill":"#6c1c97","fill-opacity":0.5}},{"type":"Feature","geometry":{"type":"Polygon","coordinates":[[[-122.74347132712138,38.44521903429738],[-122.75125740365976,38.44526664133648],[-122.75124973146445,38.44482808681285],[-122.75123979396172,38.44439823626449],[-122.75113902172087,38.44410193103605],[-122.75095516338504,38.44374572229777],[-122.75069083812377,38.44343803541954],[-122.75011707733567,38.44306022435974],[-122.74925892685847,38.44263668652051],[-122.74762190144455,38.44186249315659],[-122.7460019302202,38.44107556627248],[-122.7438189122298,38.44001572824714],[-122.74324441220917,38.43936831907155],[-122.7431301661694,38.43921467287363],[-122.74296076225527,38.43842327459925],[-122.74247637420882,38.43866784859778],[-122.74192549275548,38.43890472695014],[-122.74138996458294,38.43905529942984],[-122.74077745567574,38.43903269811865],[-122.74001449663513,38.43875868381285],[-122.73897862180134,38.43841341278808],[-122.73633382532277,38.43753350290669],[-122.73578496312145,38.43713336365102],[-122.73535067675893,38.43638787049089],[-122.73484247570246,38.43578044147212],[-122.73416313808409,38.43537727779899],[-122.73359603944753,38.43526031667824],[-122.73307442677633,38.43529478152363],[-122.73168254746543,38.43558207975964],[-122.73090283319874,38.43583496270894],[-122.73041877770724,38.43605221627537],[-122.7280913861036,38.43641584345225],[-122.72693620752374,38.43625707651673],[-122.72653086456164,38.43627557904418],[-122.72593149447177,38.43644710832274],[-122.72525749414102,38.4366208411993],[-122.72473240253377,38.43677944973014],[-122.72426980235564,38.4368457411245],[-122.72391774439116,38.43683673947862],[-122.72332519169724,38.43656264502822],[-122.72307040542697,38.43616287144335],[-122.72286551923422,38.43576744121613],[-122.7221869778236,38.43514981431675],[-122.72181905087184,38.4349281627047],[-122.7213696781441,38.43480844442041],[-122.7213783748448,38.43604213368252],[-122.72174346959223,38.43775892677943],[-122.72233114122828,38.43902542699135],[-122.7241055811256,38.44120069462145],[-122.72806424768397,38.44572581794754],[-122.73676644370428,38.44555209108516],[-122.739424277097,38.44542106773344],[-122.74088344668566,38.44539224832441],[-122.74168694828406,38.44535594780008],[-122.74347132712138,38.44521903429738]]]},"properties":{"Name":"Abraham Lincoln Elementary School","stroke":"#555555","stroke-width":2,"stroke-opacity":1,"fill":"#17c200","fill-opacity":0.5}},{"type":"Feature","geometry":{"type":"Polygon","coordinates":[[[-122.74166068727583,38.46662215753895],[-122.73417074285237,38.46661932202804],[-122.73264649091314,38.46660805274813],[-122.73264774833822,38.46622453549698],[-122.73104489880313,38.4662500139172],[-122.73108395406508,38.468661900281035],[-122.72857392769471,38.46864244733996],[-122.73084356589091,38.47396008750629],[-122.73151387069242,38.47566408911427],[-122.73089836824226,38.47576098054205],[-122.73053992348463,38.47546166826166],[-122.72860682342345,38.474767794795085],[-122.72739484485595,38.47517009153397],[-122.72594396591992,38.47440820790165],[-122.72475510570852,38.473790874455005],[-122.7245994657447,38.47343363519564],[-122.72368305834965,38.47287415633747],[-122.72317717024853,38.472547923543004],[-122.72218274274398,38.471923590065956],[-122.72113053559849,38.47117862606246],[-122.72064578958755,38.47022110229082],[-122.72044287244726,38.4698140850025],[-122.71943424005734,38.46877392159544],[-122.71795948241919,38.46760223660206],[-122.7145812400898,38.46728286280915],[-122.71349325487148,38.46717527666416],[-122.71254912755731,38.466912386073304],[-122.71154872506426,38.46606989086705],[-122.71111073695735,38.465766435325406],[-122.70972055566213,38.46477819271236],[-122.70918794353724,38.46453014953495],[-122.7090038114151,38.46377193910297],[-122.70732293276693,38.46440751021812],[-122.70670762639372,38.464508654697994],[-122.70612211965232,38.46406381692033],[-122.70477017634778,38.46117072540322],[-122.70427460000604,38.460670031845034],[-122.70414455031566,38.46053528492799],[-122.70408332169309,38.460477219610134],[-122.70392936663981,38.460321321186655],[-122.70379271778275,38.46017843491322],[-122.70362426838882,38.46000419232991],[-122.70346676598048,38.45983751732996],[-122.70445002225125,38.45937528758092],[-122.70395575690172,38.458628613890774],[-122.70375066614177,38.45878073816283],[-122.70298853664902,38.45841171467049],[-122.70285367611064,38.458781772568045],[-122.70247925047106,38.45871689138821],[-122.70243489688285,38.45883677911438],[-122.70166498879036,38.45876819680068],[-122.70125267872112,38.458545872823265],[-122.69842946414201,38.46129559701214],[-122.69828535259012,38.461261465085826],[-122.69746038001831,38.462450683728264],[-122.69630048629773,38.464271940398554],[-122.69586515309,38.464917684349246],[-122.69558601269478,38.465023970935945],[-122.69772536376774,38.46590569098632],[-122.69724063057623,38.4666525501363],[-122.69535344133618,38.465880140011436],[-122.6924429968763,38.47042283589103],[-122.69178968423074,38.47038540975197],[-122.69067946961263,38.47039908676761],[-122.68965882155199,38.47196289915828],[-122.69055000415214,38.47195851052348],[-122.69054603186729,38.47474643846378],[-122.69264216655456,38.474671934616865],[-122.693615568751,38.474824508251544],[-122.69550277489246,38.474772681627336],[-122.69555782009736,38.47844843476299],[-122.69562030394277,38.482048797268725],[-122.69429922237765,38.482048878294336],[-122.69365883150633,38.4831730426495],[-122.69316423186064,38.48350657764162],[-122.69251348218798,38.483775941568574],[-122.69160220673218,38.48412806898037],[-122.69086679384448,38.48263688867892],[-122.69001754952416,38.481100258293154],[-122.68625905182851,38.48119866955473],[-122.68637124374621,38.49071558871407],[-122.68638397527477,38.49302270126811],[-122.6955530644054,38.49301887740238],[-122.69564921779968,38.49579892755523],[-122.69561482777354,38.49664502652094],[-122.70093562608999,38.496636849963274],[-122.70559085925335,38.4966360342309],[-122.71132037920206,38.4965867495141],[-122.7133829152153,38.49657769812097],[-122.71320392840575,38.49568246013773],[-122.71300371155058,38.49502730569467],[-122.71258795800736,38.494372426234435],[-122.71242639314336,38.49380455983802],[-122.71243193324344,38.49325081304891],[-122.71270505444761,38.4927605176197],[-122.7124616916748,38.49166945899682],[-122.71253063046193,38.48972916936735],[-122.71238946997526,38.48927309124133],[-122.71500512605552,38.489259779240925],[-122.71709548383343,38.489241597764114],[-122.71736753168601,38.48952047069302],[-122.71776219582374,38.48922230368868],[-122.721107831281,38.48917183034216],[-122.72336651685329,38.489137899352556],[-122.72334079315198,38.48533895791769],[-122.72332251352266,38.48380098998702],[-122.72349129456323,38.48372560224561],[-122.72401156841966,38.482621252242076],[-122.7242179772472,38.482407107326324],[-122.72437623637374,38.48238142004867],[-122.72445989956708,38.482255093234144],[-122.7261874795399,38.4821297758795],[-122.72822195580638,38.481757426523465],[-122.72922602847581,38.48170168868796],[-122.73016464566285,38.48134843446678],[-122.7315930854547,38.48044625131679],[-122.73296167520661,38.47956149479709],[-122.73276998161553,38.47931057590566],[-122.73397096858501,38.47841158245324],[-122.7348296922725,38.47839241682759],[-122.73742561461421,38.47674187369279],[-122.73813699459576,38.47630510058279],[-122.73813457740161,38.47516739204851],[-122.74020446843716,38.47518649766956],[-122.74020983426163,38.47470794010176],[-122.74039019671454,38.47462096663367],[-122.74173403148201,38.47461668003303],[-122.74172078193094,38.473694017970956],[-122.74171818963268,38.47206567029269],[-122.74166068727583,38.46662215753895]]]},"properties":{"Name":"Hidden Valley Elementary School","stroke":"#555555","stroke-width":2,"stroke-opacity":1,"fill":"#0040ff","fill-opacity":0.5}}]}