{"type":"FeatureCollection","features":[{"type":"Feature","properties":{"Name":"District Office - Stony Point","marker-color":"#1f78b4","marker-size":"medium","marker-symbol":"suitcase"},"geometry":{"coordinates":[-122.74525053375865,38.44276763550101],"type":"Point"},"id":0},{"type":"Feature","properties":{"Name":"Montgomery Village","marker-color":"#1f78b4","marker-size":"medium","marker-symbol":"shop"},"geometry":{"coordinates":[-122.68657501957696,38.44417552971771],"type":"Point"},"id":1},{"type":"Feature","properties":{"Name":"Coddingtown Mall","marker-color":"#1f78b4","marker-size":"medium","marker-symbol":"shop"},"geometry":{"coordinates":[-122.72984981787309,38.4576992432755],"type":"Point"},"id":2},{"type":"Feature","properties":{"Name":"Santa Rosa Rural Cemetery","marker-color":"#1f78b4","marker-size":"medium","marker-symbol":"cemetery"},"geometry":{"coordinates":[-122.70448194960893,38.45580606492004],"type":"Point"},"id":3},{"type":"Feature","properties":{"Name":"Bennet Valley Golf Course","marker-color":"#05a325","marker-size":"medium","marker-symbol":"golf"},"geometry":{"coordinates":[-122.65967706825128,38.42285602760174],"type":"Point"},"id":4},{"type":"Feature","properties":{"Name":"Fairgrounds","marker-color":"#1f78b4","marker-size":"medium","marker-symbol":"horse-riding"},"geometry":{"coordinates":[-122.70082961355851,38.42982213291762],"type":"Point"},"id":5},{"type":"Feature","properties":{"Name":"Howarth Park","marker-color":"#05a325","marker-size":"medium","marker-symbol":"park"},"geometry":{"coordinates":[-122.66921551587345,38.45231708705609],"type":"Point"},"id":6},{"type":"Feature","properties":{"Name":"Old Courthouse Square","marker-color":"#1f78b4","marker-size":"medium","marker-symbol":"courthouse"},"geometry":{"coordinates":[-122.71377052703355,38.440103723127294],"type":"Point"},"id":7},{"type":"Feature","properties":{"Name":"Larkfield Market","marker-color":"#1f78b4","marker-size":"medium","marker-symbol":"shop"},"geometry":{"coordinates":[-122.75126064657681,38.5017251140838],"type":"Point"},"id":8},{"type":"Feature","properties":{"Name":"Airport","marker-color":"#1f78b4","marker-size":"medium","marker-symbol":"airport"},"geometry":{"coordinates":[-122.8134207699367,38.50942561427854],"type":"Point"},"id":10},{"type":"Feature","properties":{"Name":"Auxiliary Airfield","marker-color":"#1f78b4","marker-size":"medium","marker-symbol":"airfield"},"geometry":{"coordinates":[-122.76285977362706,38.416333723494915],"type":"Point"},"id":11},{"type":"Feature","properties":{"Name":"Kaiser Permanente Hospital","marker-color":"#ed3535","marker-size":"medium","marker-symbol":"hospital"},"geometry":{"coordinates":[-122.7264994309086,38.47160139180866],"type":"Point"},"id":13},{"type":"Feature","properties":{"Name":"Sutter Hospital","marker-color":"#ed3535","marker-size":"medium","marker-symbol":"hospital"},"geometry":{"coordinates":[-122.75209479804906,38.495312002131186],"type":"Point"},"id":12},{"type":"Feature","properties":{"Name":"Santa Rosa Memorial Hospital","marker-color":"#ed3535","marker-size":"medium","marker-symbol":"hospital"},"geometry":{"coordinates":[-122.70102481257689,38.443753944514725],"type":"Point"},"id":15},{"type":"Feature","properties":{"Name":"Fountain Grove Golf Course","marker-color":"#05a325","marker-size":"medium","marker-symbol":"golf"},"geometry":{"coordinates":[-122.71158713364736,38.49089547062056],"type":"Point"},"id":14},{"type":"Feature","properties":{"Name":"Finley Park","marker-color":"#05a325","marker-size":"medium","marker-symbol":"park"},"geometry":{"coordinates":[-122.74921471107444,38.44406275894667],"type":"Point"},"id":17},{"type":"Feature","properties":{"marker-symbol":"park","marker-size":"medium","marker-color":"#05a325","Name":"Roseland Creek Park"},"geometry":{"coordinates":[-122.73326788845219,38.42358208965214],"type":"Point"},"id":18},{"type":"Feature","properties":{"Name":"Southwest Park","marker-color":"#05a325","marker-size":"medium","marker-symbol":"park"},"geometry":{"coordinates":[-122.73321587885923,38.412085073750944],"type":"Point"},"id":19},{"type":"Feature","properties":{"marker-symbol":"park","marker-size":"medium","marker-color":"#05a325","Name":"Northwest Park"},"geometry":{"coordinates":[-122.74839564600417,38.45718278158003],"type":"Point"},"id":20},{"type":"Feature","properties":{"Name":"Santa Rosa Marketplace","marker-color":"#1f78b4","marker-size":"medium","marker-symbol":"shop"},"geometry":{"coordinates":[-122.71089529794763,38.418585442171945],"type":"Point"},"id":20},{"type":"Feature","properties":{"marker-symbol":"shop","marker-size":"medium","marker-color":"#1f78b4","Name":"Santa Rosa Plaza"},"geometry":{"coordinates":[-122.7165873133177,38.43879768789995],"type":"Point"},"id":21},{"type":"Feature","properties":{"Name":"Andy Lopez Unity Park","marker-color":"#05a325","marker-size":"medium","marker-symbol":"park"},"geometry":{"coordinates":[-122.72012111006876,38.39508167885768],"type":"Point"},"id":22}]}